$$SOE
2461302.500000000, A.D. 2026-Sep-19 00:00:00.0000, -3.450886212873666E+08, 1.931528790102280E+08, -8.498607892850247E+07,
2461309.500000000, A.D. 2026-Sep-26 00:00:00.0000, -3.522575727691248E+08, 1.841031728130975E+08, -8.292900529508637E+07,
2461316.500000000, A.D. 2026-Oct-03 00:00:00.0000, -3.591711326107689E+08, 1.749200932705145E+08, -8.081174563898796E+07,
2461323.500000000, A.D. 2026-Oct-10 00:00:00.0000, -3.658272769875547E+08, 1.656117523081227E+08, -7.863651022812870E+07,
2461330.500000000, A.D. 2026-Oct-17 00:00:00.0000, -3.722243008087448E+08, 1.561862071148877E+08, -7.640551978630388E+07,
2461337.500000000, A.D. 2026-Oct-24 00:00:00.0000, -3.783608083782682E+08, 1.466514474756257E+08, -7.412100100353135E+07,
2461344.500000000, A.D. 2026-Oct-31 00:00:00.0000, -3.842357034848461E+08, 1.370153838488760E+08, -7.178518229527318E+07,
2461351.500000000, A.D. 2026-Nov-07 00:00:00.0000, -3.898481786641400E+08, 1.272858362616156E+08, -6.940028984140459E+07,
2461358.500000000, A.D. 2026-Nov-14 00:00:00.0000, -3.951977035097979E+08, 1.174705248991363E+08, -6.696854385441064E+07,
2461365.500000000, A.D. 2026-Nov-21 00:00:00.0000, -4.002840139196214E+08, 1.075770630568601E+08, -6.449215485678175E+07,
2461372.500000000, A.D. 2026-Nov-28 00:00:00.0000, -4.051071033468518E+08, 9.761294942708053E+07, -6.197332012265784E+07,
2461379.500000000, A.D. 2026-Dec-05 00:00:00.0000, -4.096672125025753E+08, 8.758555904283193E+07, -5.941422066774418E+07,
2461386.500000000, A.D. 2026-Dec-12 00:00:00.0000, -4.139648174018208E+08, 7.750213596263050E+07, -5.681701854394013E+07,
2461393.500000000, A.D. 2026-Dec-19 00:00:00.0000, -4.180006176958410E+08, 6.736978767016602E+07, -5.418385426036246E+07,
2461400.500000000, A.D. 2026-Dec-26 00:00:00.0000, -4.217755254860645E+08, 5.719548028790049E+07, -5.151684438393022E+07,
2461407.500000000, A.D. 2027-Jan-02 00:00:00.0000, -4.252906543914993E+08, 4.698603438013855E+07, -4.881807935434288E+07,
2461414.500000000, A.D. 2027-Jan-09 00:00:00.0000, -4.285473087946566E+08, 3.674812133071896E+07, -4.608962151513210E+07,
2461421.500000000, A.D. 2027-Jan-16 00:00:00.0000, -4.315469732677642E+08, 2.648826026802870E+07, -4.333350335501334E+07,
2461428.500000000, A.D. 2027-Jan-23 00:00:00.0000, -4.342913021654150E+08, 1.621281546090373E+07, -4.055172595797562E+07,
2461435.500000000, A.D. 2027-Jan-30 00:00:00.0000, -4.367821092230979E+08, 5.927994099930469E+06, -3.774625767371691E+07,
2461442.500000000, A.D. 2027-Feb-06 00:00:00.0000, -4.390213567599717E+08, -4.360155234693525E+06, -3.491903301003612E+07,
2461449.500000000, A.D. 2027-Feb-13 00:00:00.0000, -4.410111449666779E+08, -1.464574223872612E+07, -3.207195159616918E+07,
2461456.500000000, A.D. 2027-Feb-20 00:00:00.0000, -4.427537036616688E+08, -2.492303351316281E+07, -2.920687705653767E+07,
2461463.500000000, A.D. 2027-Feb-27 00:00:00.0000, -4.442513851391451E+08, -3.518645340735197E+07, -2.632563617758659E+07,
2461470.500000000, A.D. 2027-Mar-06 00:00:00.0000, -4.455066551044943E+08, -4.543058518562822E+07, -2.343001847861952E+07,
2461477.500000000, A.D. 2027-Mar-13 00:00:00.0000, -4.465220833042465E+08, -5.565017049914325E+07, -2.052177586278568E+07,
2461484.500000000, A.D. 2027-Mar-20 00:00:00.0000, -4.473003349836957E+08, -6.584010802933714E+07, -1.760262230360623E+07,
2461491.500000000, A.D. 2027-Mar-27 00:00:00.0000, -4.478441629727837E+08, -7.599545188270664E+07, -1.467423362169629E+07,
2461498.500000000, A.D. 2027-Apr-03 00:00:00.0000, -4.481564001976276E+08, -8.611140981349106E+07, -1.173824736563031E+07,
2461505.500000000, A.D. 2027-Apr-10 00:00:00.0000, -4.482399525542733E+08, -9.618334127893259E+07, -8.796262792355098E+06,
2461512.500000000, A.D. 2027-Apr-17 00:00:00.0000, -4.480977921189393E+08, -1.062067553682381E+08, -5.849840942436524E+06,
2461519.500000000, A.D. 2027-Apr-24 00:00:00.0000, -4.477329506111370E+08, -1.161773086929854E+08, -2.900504815018132E+06,
2461526.500000000, A.D. 2027-May-01 00:00:00.0000, -4.471485128050435E+08, -1.260908032350708E+08, 5.026033940817416E+04,
2461533.500000000, A.D. 2027-May-08 00:00:00.0000, -4.463476095758370E+08, -1.359431834257850E+08, 3.001006648201630E+06,
2461540.500000000, A.D. 2027-May-15 00:00:00.0000, -4.453334120707903E+08, -1.457305315229172E+08, 5.950323389439508E+06,
2461547.500000000, A.D. 2027-May-22 00:00:00.0000, -4.441091285616974E+08, -1.554490638968310E+08, 8.896836846173622E+06,
2461554.500000000, A.D. 2027-May-29 00:00:00.0000, -4.426780006160046E+08, -1.650951297113433E+08, 1.183920982016911E+07,
2461561.500000000, A.D. 2027-Jun-05 00:00:00.0000, -4.410432976933494E+08, -1.746652088824054E+08, 1.477614098570094E+07,
2461568.500000000, A.D. 2027-Jun-12 00:00:00.0000, -4.392083121641137E+08, -1.841559088964041E+08, 1.770636430819003E+07,
2461575.500000000, A.D. 2027-Jun-19 00:00:00.0000, -4.371763550700666E+08, -1.935639614368399E+08, 2.062864848644873E+07,
2461582.500000000, A.D. 2027-Jun-26 00:00:00.0000, -4.349507523378227E+08, -2.028862190937295E+08, 2.354179637604759E+07,
2461589.500000000, A.D. 2027-Jul-03 00:00:00.0000, -4.325348413034883E+08, -2.121196521589153E+08, 2.644464438668427E+07,
2461596.500000000, A.D. 2027-Jul-10 00:00:00.0000, -4.299319675018312E+08, -2.212613455086328E+08, 2.933606185498366E+07,
2461603.500000000, A.D. 2027-Jul-17 00:00:00.0000, -4.271454816735361E+08, -2.303084956212672E+08, 3.221495039002687E+07,
2461610.500000000, A.D. 2027-Jul-24 00:00:00.0000, -4.241787368240501E+08, -2.392584078013358E+08, 3.508024317563321E+07,
2461617.500000000, A.D. 2027-Jul-31 00:00:00.0000, -4.210350849126372E+08, -2.481084933815364E+08, 3.793090421412033E+07,
2461624.500000000, A.D. 2027-Aug-07 00:00:00.0000, -4.177178733623693E+08, -2.568562657575688E+08, 4.076592762695579E+07,
2461631.500000000, A.D. 2027-Aug-14 00:00:00.0000, -4.142304436821000E+08, -2.654993355149851E+08, 4.358433720514689E+07,
2461638.500000000, A.D. 2027-Aug-21 00:00:00.0000, -4.105761315731490E+08, -2.740354080183476E+08, 4.638518588001013E+07,
2461645.500000000, A.D. 2027-Aug-28 00:00:00.0000, -4.067582650819420E+08, -2.824622822647029E+08, 4.916755490023626E+07,
2461652.500000000, A.D. 2027-Sep-04 00:00:00.0000, -4.027801619716496E+08, -2.907778485024099E+08, 5.193055303006185E+07,
2461659.500000000, A.D. 2027-Sep-11 00:00:00.0000, -3.986451276992446E+08, -2.989800852791626E+08, 5.467331584398524E+07,
2461666.500000000, A.D. 2027-Sep-18 00:00:00.0000, -3.943564538561879E+08, -3.070670565718312E+08, 5.739500505388175E+07,
2461673.500000000, A.D. 2027-Sep-25 00:00:00.0000, -3.899174168359503E+08, -3.150369090776981E+08, 6.009480784224347E+07,
2461680.500000000, A.D. 2027-Oct-02 00:00:00.0000, -3.853312766456044E+08, -3.228878696405484E+08, 6.277193619779240E+07,
2461687.500000000, A.D. 2027-Oct-09 00:00:00.0000, -3.806012758309751E+08, -3.306182428165498E+08, 6.542562625164756E+07,
2461694.500000000, A.D. 2027-Oct-16 00:00:00.0000, -3.757306384439965E+08, -3.382264086353984E+08, 6.805513760418221E+07,
2461701.500000000, A.D. 2027-Oct-23 00:00:00.0000, -3.707225687848221E+08, -3.457108205635657E+08, 7.065975261870497E+07,
2461708.500000000, A.D. 2027-Oct-30 00:00:00.0000, -3.655802495374689E+08, -3.530700030606053E+08, 7.323877569807269E+07,
2461715.500000000, A.D. 2027-Nov-06 00:00:00.0000, -3.603068404566977E+08, -3.603025476010906E+08, 7.579153274378887E+07,
2461722.500000000, A.D. 2027-Nov-13 00:00:00.0000, -3.549054795860892E+08, -3.674071092386800E+08, 7.831737081057988E+07,
2461729.500000000, A.D. 2027-Nov-20 00:00:00.0000, -3.493792841006764E+08, -3.743824058986184E+08, 8.081565751235351E+07,
2461736.500000000, A.D. 2027-Nov-27 00:00:00.0000, -3.437313491523502E+08, -3.812272174339188E+08, 8.328578027419348E+07,
2461743.500000000, A.D. 2027-Dec-04 00:00:00.0000, -3.379647467368133E+08, -3.879403835298866E+08, 8.572714569106071E+07,
2461750.500000000, A.D. 2027-Dec-11 00:00:00.0000, -3.320825251273439E+08, -3.945208014194261E+08, 8.813917896499392E+07,
2461757.500000000, A.D. 2027-Dec-18 00:00:00.0000, -3.260877085952110E+08, -4.009674237471572E+08, 9.052132336788850E+07,
2461764.500000000, A.D. 2027-Dec-25 00:00:00.0000, -3.199832972601122E+08, -4.072792565838101E+08, 9.287303971584752E+07,
2461771.500000000, A.D. 2028-Jan-01 00:00:00.0000, -3.137722670251601E+08, -4.134553575756319E+08, 9.519380585271652E+07,
$$EOE